[{"OBJECT_NAME":"STARLINK-31921","OBJECT_ID":"2024-098L","EPOCH":"2026-02-19T04:47:48.334272","MEAN_MOTION":15.27570487,"ECCENTRICITY":0.0002368,"INCLINATION":43.0042,"RA_OF_ASC_NODE":342.0607,"ARG_OF_PERICENTER":245.232,"MEAN_ANOMALY":114.8285,"EPHEMERIS_TYPE":0,"CLASSIFICATION_TYPE":"U","NORAD_CAT_ID":59868,"ELEMENT_SET_NO":999,"REV_AT_EPOCH":9947,"BSTAR":1.2646e-5,"MEAN_MOTION_DOT":8.5e-7,"MEAN_MOTION_DDOT":0},{"OBJECT_NAME":"STARLINK-31760","OBJECT_ID":"2024-098M","EPOCH":"2026-02-19T23:23:16.259136","MEAN_MOTION":15.27581147,"ECCENTRICITY":0.00012996,"INCLINATION":43.0019,"RA_OF_ASC_NODE":18.3126,"ARG_OF_PERICENTER":264.1413,"MEAN_ANOMALY":95.9291,"EPHEMERIS_TYPE":0,"CLASSIFICATION_TYPE":"U","NORAD_CAT_ID":59869,"ELEMENT_SET_NO":999,"REV_AT_EPOCH":9913,"BSTAR":3.5763067e-5,"MEAN_MOTION_DOT":7.22e-6,"MEAN_MOTION_DDOT":0},{"OBJECT_NAME":"STARLINK-31945","OBJECT_ID":"2024-098N","EPOCH":"2026-02-18T23:49:34.449312","MEAN_MOTION":15.27567467,"ECCENTRICITY":0.0001354,"INCLINATION":43.0035,"RA_OF_ASC_NODE":19.5259,"ARG_OF_PERICENTER":270.3167,"MEAN_ANOMALY":89.753,"EPHEMERIS_TYPE":0,"CLASSIFICATION_TYPE":"U","NORAD_CAT_ID":59870,"ELEMENT_SET_NO":999,"REV_AT_EPOCH":9903,"BSTAR":-5.4458e-5,"MEAN_MOTION_DOT":-1.76e-5,"MEAN_MOTION_DDOT":0},{"OBJECT_NAME":"STARLINK-31937","OBJECT_ID":"2024-098P","EPOCH":"2026-02-19T21:15:21.836160","MEAN_MOTION":15.27577774,"ECCENTRICITY":9.197e-5,"INCLINATION":43.0036,"RA_OF_ASC_NODE":11.5907,"ARG_OF_PERICENTER":312.0496,"MEAN_ANOMALY":48.0277,"EPHEMERIS_TYPE":0,"CLASSIFICATION_TYPE":"U","NORAD_CAT_ID":59871,"ELEMENT_SET_NO":999,"REV_AT_EPOCH":9920,"BSTAR":4.3957348e-5,"MEAN_MOTION_DOT":9.48e-6,"MEAN_MOTION_DDOT":0},{"OBJECT_NAME":"STARLINK-31940","OBJECT_ID":"2024-098R","EPOCH":"2026-02-19T07:29:56.607936","MEAN_MOTION":15.27580273,"ECCENTRICITY":9.706e-5,"INCLINATION":43.0018,"RA_OF_ASC_NODE":14.1641,"ARG_OF_PERICENTER":254.7696,"MEAN_ANOMALY":105.3049,"EPHEMERIS_TYPE":0,"CLASSIFICATION_TYPE":"U","NORAD_CAT_ID":59873,"ELEMENT_SET_NO":999,"REV_AT_EPOCH":9912,"BSTAR":-1.2741883e-5,"MEAN_MOTION_DOT":-6.13e-6,"MEAN_MOTION_DDOT":0},{"OBJECT_NAME":"STARLINK-31933","OBJECT_ID":"2024-098S","EPOCH":"2026-02-19T07:04:42.505824","MEAN_MOTION":15.27577225,"ECCENTRICITY":6.65e-5,"INCLINATION":43.0023,"RA_OF_ASC_NODE":21.8163,"ARG_OF_PERICENTER":223.5446,"MEAN_ANOMALY":136.5353,"EPHEMERIS_TYPE":0,"CLASSIFICATION_TYPE":"U","NORAD_CAT_ID":59874,"ELEMENT_SET_NO":999,"REV_AT_EPOCH":9903,"BSTAR":8.0455e-6,"MEAN_MOTION_DOT":-4.0e-7,"MEAN_MOTION_DDOT":0},{"OBJECT_NAME":"STARLINK-31936","OBJECT_ID":"2024-098T","EPOCH":"2026-02-19T19:38:24.027360","MEAN_MOTION":15.27578087,"ECCENTRICITY":0.00014926,"INCLINATION":43.0041,"RA_OF_ASC_NODE":346.5902,"ARG_OF_PERICENTER":266.2025,"MEAN_ANOMALY":93.8656,"EPHEMERIS_TYPE":0,"CLASSIFICATION_TYPE":"U","NORAD_CAT_ID":59875,"ELEMENT_SET_NO":999,"REV_AT_EPOCH":9947,"BSTAR":2.0083353e-5,"MEAN_MOTION_DOT":2.9e-6,"MEAN_MOTION_DDOT":0},{"OBJECT_NAME":"STARLINK-31935","OBJECT_ID":"2024-098U","EPOCH":"2026-02-19T07:36:09.523296","MEAN_MOTION":15.27582642,"ECCENTRICITY":0.00014802,"INCLINATION":43.0034,"RA_OF_ASC_NODE":21.9791,"ARG_OF_PERICENTER":263.2701,"MEAN_ANOMALY":96.7982,"EPHEMERIS_TYPE":0,"CLASSIFICATION_TYPE":"U","NORAD_CAT_ID":59876,"ELEMENT_SET_NO":999,"REV_AT_EPOCH":9903,"BSTAR":6.8934402e-5,"MEAN_MOTION_DOT":1.635e-5,"MEAN_MOTION_DDOT":0},{"OBJECT_NAME":"STARLINK-31934","OBJECT_ID":"2024-098V","EPOCH":"2026-02-19T06:43:12.165024","MEAN_MOTION":15.27577406,"ECCENTRICITY":4.41e-5,"INCLINATION":43.0002,"RA_OF_ASC_NODE":18.2377,"ARG_OF_PERICENTER":181.3641,"MEAN_ANOMALY":178.7209,"EPHEMERIS_TYPE":0,"CLASSIFICATION_TYPE":"U","NORAD_CAT_ID":59877,"ELEMENT_SET_NO":999,"REV_AT_EPOCH":9907,"BSTAR":1.3556e-5,"MEAN_MOTION_DOT":1.11e-6,"MEAN_MOTION_DDOT":0},{"OBJECT_NAME":"STARLINK-31943","OBJECT_ID":"2024-098W","EPOCH":"2026-02-19T22:21:44.117568","MEAN_MOTION":15.27574272,"ECCENTRICITY":9.519e-5,"INCLINATION":43.0001,"RA_OF_ASC_NODE":22.3148,"ARG_OF_PERICENTER":276.8807,"MEAN_ANOMALY":83.1936,"EPHEMERIS_TYPE":0,"CLASSIFICATION_TYPE":"U","NORAD_CAT_ID":59878,"ELEMENT_SET_NO":999,"REV_AT_EPOCH":9843,"BSTAR":-4.517896e-6,"MEAN_MOTION_DOT":-3.86e-6,"MEAN_MOTION_DDOT":0},{"OBJECT_NAME":"STARLINK-31926","OBJECT_ID":"2024-098X","EPOCH":"2026-02-19T06:09:32.438880","MEAN_MOTION":15.27576044,"ECCENTRICITY":0.0001358,"INCLINATION":43.0042,"RA_OF_ASC_NODE":11.5957,"ARG_OF_PERICENTER":274.7803,"MEAN_ANOMALY":85.2894,"EPHEMERIS_TYPE":0,"CLASSIFICATION_TYPE":"U","NORAD_CAT_ID":59879,"ELEMENT_SET_NO":999,"REV_AT_EPOCH":9914,"BSTAR":6.8296e-6,"MEAN_MOTION_DOT":-7.4e-7,"MEAN_MOTION_DDOT":0},{"OBJECT_NAME":"STARLINK-31919","OBJECT_ID":"2024-098Y","EPOCH":"2026-02-19T07:15:47.888640","MEAN_MOTION":15.27580224,"ECCENTRICITY":0.0001064,"INCLINATION":43.0043,"RA_OF_ASC_NODE":21.8742,"ARG_OF_PERICENTER":263.2895,"MEAN_ANOMALY":96.7835,"EPHEMERIS_TYPE":0,"CLASSIFICATION_TYPE":"U","NORAD_CAT_ID":59880,"ELEMENT_SET_NO":999,"REV_AT_EPOCH":9903,"BSTAR":6.1856e-5,"MEAN_MOTION_DOT":1.44e-5,"MEAN_MOTION_DDOT":0},{"OBJECT_NAME":"STARLINK-31974","OBJECT_ID":"2024-100A","EPOCH":"2026-02-19T19:37:42.822336","MEAN_MOTION":15.27582183,"ECCENTRICITY":0.00016457,"INCLINATION":43.002,"RA_OF_ASC_NODE":226.3294,"ARG_OF_PERICENTER":269.6132,"MEAN_ANOMALY":90.4531,"EPHEMERIS_TYPE":0,"CLASSIFICATION_TYPE":"U","NORAD_CAT_ID":59885,"ELEMENT_SET_NO":999,"REV_AT_EPOCH":9832,"BSTAR":5.4376361e-5,"MEAN_MOTION_DOT":1.234e-5,"MEAN_MOTION_DDOT":0},{"OBJECT_NAME":"STARLINK-31975","OBJECT_ID":"2024-100B","EPOCH":"2026-02-19T11:50:38.025024","MEAN_MOTION":15.27582341,"ECCENTRICITY":0.0001969,"INCLINATION":43.0011,"RA_OF_ASC_NODE":228.1906,"ARG_OF_PERICENTER":268.1899,"MEAN_ANOMALY":91.8727,"EPHEMERIS_TYPE":0,"CLASSIFICATION_TYPE":"U","NORAD_CAT_ID":59886,"ELEMENT_SET_NO":999,"REV_AT_EPOCH":9837,"BSTAR":3.215429e-6,"MEAN_MOTION_DOT":-1.74e-6,"MEAN_MOTION_DDOT":0},{"OBJECT_NAME":"STARLINK-31976","OBJECT_ID":"2024-100C","EPOCH":"2026-02-19T20:32:31.557120","MEAN_MOTION":15.27579999,"ECCENTRICITY":9.343e-5,"INCLINATION":42.9987,"RA_OF_ASC_NODE":230.0437,"ARG_OF_PERICENTER":262.5657,"MEAN_ANOMALY":97.5088,"EPHEMERIS_TYPE":0,"CLASSIFICATION_TYPE":"U","NORAD_CAT_ID":59887,"ELEMENT_SET_NO":999,"REV_AT_EPOCH":9838,"BSTAR":3.0380107e-5,"MEAN_MOTION_DOT":5.74e-6,"MEAN_MOTION_DDOT":0},{"OBJECT_NAME":"STARLINK-31965","OBJECT_ID":"2024-100D","EPOCH":"2026-02-19T13:41:27.020832","MEAN_MOTION":15.27598846,"ECCENTRICITY":0.0002357,"INCLINATION":42.9971,"RA_OF_ASC_NODE":227.9067,"ARG_OF_PERICENTER":281.9602,"MEAN_ANOMALY":78.0985,"EPHEMERIS_TYPE":0,"CLASSIFICATION_TYPE":"U","NORAD_CAT_ID":59888,"ELEMENT_SET_NO":999,"REV_AT_EPOCH":9828,"BSTAR":0.00086676,"MEAN_MOTION_DOT":0.0002368,"MEAN_MOTION_DDOT":0},{"OBJECT_NAME":"STARLINK-31969","OBJECT_ID":"2024-100E","EPOCH":"2026-02-19T19:34:43.269312","MEAN_MOTION":15.27579779,"ECCENTRICITY":0.00014781,"INCLINATION":43.0004,"RA_OF_ASC_NODE":222.8541,"ARG_OF_PERICENTER":266.6815,"MEAN_ANOMALY":93.3868,"EPHEMERIS_TYPE":0,"CLASSIFICATION_TYPE":"U","NORAD_CAT_ID":59889,"ELEMENT_SET_NO":999,"REV_AT_EPOCH":9846,"BSTAR":5.9941224e-5,"MEAN_MOTION_DOT":1.388e-5,"MEAN_MOTION_DDOT":0}]
