STARLINK-31921          
1 59868U 24098L   26050.19986498  .00000085  00000+0  12646-4 0  9991
2 59868  43.0042 342.0607 0002368 245.2320 114.8285 15.27570487 99474
STARLINK-31760          
1 59869U 24098M   26050.97449374  .00000722  00000+0  35763-4 0  9998
2 59869  43.0019  18.3126 0001299 264.1413  95.9291 15.27581147 99137
STARLINK-31945          
1 59870U 24098N   26049.99275983 -.00001760  00000+0 -54458-4 0  9990
2 59870  43.0035  19.5259 0001354 270.3167  89.7530 15.27567467 99039
STARLINK-31937          
1 59871U 24098P   26050.88566940  .00000948  00000+0  43957-4 0  9994
2 59871  43.0036  11.5907 0000919 312.0496  48.0277 15.27577774 99205
STARLINK-31940          
1 59873U 24098R   26050.31246074 -.00000613  00000+0 -12742-4 0  9996
2 59873  43.0018  14.1641 0000970 254.7696 105.3049 15.27580273 99125
STARLINK-31933          
1 59874U 24098S   26050.29493641 -.00000040  00000+0  80455-5 0  9998
2 59874  43.0023  21.8163 0000665 223.5446 136.5353 15.27577225 99031
STARLINK-31936          
1 59875U 24098T   26050.81833365  .00000290  00000+0  20083-4 0  9994
2 59875  43.0041 346.5902 0001492 266.2025  93.8656 15.27578087 99472
STARLINK-31935          
1 59876U 24098U   26050.31677689  .00001635  00000+0  68934-4 0  9996
2 59876  43.0034  21.9791 0001480 263.2701  96.7982 15.27582642 99038
STARLINK-31934          
1 59877U 24098V   26050.28000191  .00000111  00000+0  13556-4 0  9999
2 59877  43.0002  18.2377 0000441 181.3641 178.7209 15.27577406 99071
STARLINK-31943          
1 59878U 24098W   26050.93176062 -.00000386  00000+0 -45179-5 0  9996
2 59878  43.0001  22.3148 0000951 276.8807  83.1936 15.27574272 98436
STARLINK-31926          
1 59879U 24098X   26050.25662545 -.00000074  00000+0  68296-5 0  9996
2 59879  43.0042  11.5957 0001358 274.7803  85.2894 15.27576044 99149
STARLINK-31919          
1 59880U 24098Y   26050.30263760  .00001440  00000+0  61856-4 0  9991
2 59880  43.0043  21.8742 0001064 263.2895  96.7835 15.27580224 99031
STARLINK-31974          
1 59885U 24100A   26050.81785674  .00001234  00000+0  54376-4 0  9999
2 59885  43.0020 226.3294 0001645 269.6132  90.4531 15.27582183 98325
STARLINK-31975          
1 59886U 24100B   26050.49349566 -.00000174  00000+0  32154-5 0  9994
2 59886  43.0011 228.1906 0001969 268.1899  91.8727 15.27582341 98372
STARLINK-31976          
1 59887U 24100C   26050.85592080  .00000574  00000+0  30380-4 0  9997
2 59887  42.9987 230.0437 0000934 262.5657  97.5088 15.27579999 98384
STARLINK-31965          
1 59888U 24100D   26050.57045163  .00023680  00000+0  86676-3 0  9993
2 59888  42.9971 227.9067 0002357 281.9602  78.0985 15.27598846 98289
STARLINK-31969          
1 59889U 24100E   26050.81577858  .00001388  00000+0  59941-4 0  9999
2 59889  43.0004 222.8541 0001478 266.6815  93.3868 15.27579779 98463
